NORAD_CAT_ID,OBJECT_NAME,OBJECT_TYPE,EPOCH,MEAN_MOTION,ECCENTRICITY,INCLINATION,RA_OF_ASC_NODE,ARG_OF_PERICENTER,MEAN_ANOMALY,BSTAR,MEAN_MOTION_DOT,MEAN_MOTION_DDOT,TLE_LINE0,TLE_LINE1,TLE_LINE2,SEMIMAJOR_AXIS,PERIOD,APOGEE,PERIGEE,DECAYED
52482.0,STARLINK-3813,PAYLOAD,2022-07-09 14:00:01,15.73200036,0.0002559,53.2147,308.6838,13.0849,105.7154,-0.0005731,-0.00080304,0.0,0 STARLINK-3813,1 52482U 22049AH  22190.58334491 -.00080304  00000-0 -57310-3 0  9995,2 52482  53.2147 308.6838 0002559  13.0849 105.7154 15.73200036  1301,6727.895,91.533,351.482,348.038,0.0
52482.0,STARLINK-3813,PAYLOAD,2022-07-09 16:00:00,15.73163427,0.0002637,53.2149,308.2719,12.8156,218.22,-0.00013337,-0.00019271,0.0,0 STARLINK-3813,1 52482U 22049AH  22190.66667824 -.00019271  00000-0 -13337-3 0  9999,2 52482  53.2149 308.2719 0002637  12.8156 218.2200 15.73163427 10283,6727.999,91.535,351.639,348.09,0.0
52482.0,STARLINK-3813,PAYLOAD,2022-07-09 20:00:01,15.73129698,0.000267,53.2146,307.447,9.844,85.6385,0.00047296,0.00066087,0.0,0 STARLINK-3813,1 52482U 22049AH  22190.83334491  .00066087  00000-0  47296-3 0  9995,2 52482  53.2146 307.4470 0002670   9.8440  85.6385 15.73129698  1309,6728.096,91.537,351.75699999999995,348.164,0.0
52482.0,STARLINK-3813,PAYLOAD,2022-07-10 06:00:00,15.73204588,0.0002645,53.2173,305.3793,18.7201,277.8806,-2.929e-06,-1.034e-05,0.0,0 STARLINK-3813,1 52482U 22049AH  22191.25001157 -.00001034  00000-0 -29290-5 0  9991,2 52482  53.2173 305.3793 0002645  18.7201 277.8806 15.73204588 10372,6727.882,91.533,351.527,347.968,0.0
52482.0,STARLINK-3813,PAYLOAD,2022-07-10 14:00:01,15.73309115,0.0002861,53.2154,303.7346,17.5641,8.1626,0.00017054,0.00023494,0.0,0 STARLINK-3813,1 52482U 22049AH  22191.58334491  .00023494  00000-0  17054-3 0  9992,2 52482  53.2154 303.7346 0002861  17.5641   8.1626 15.73309115 10436,6727.584,91.527,351.374,347.524,0.0
52482.0,STARLINK-3813,PAYLOAD,2022-07-10 22:00:00,15.73420919,0.0003081,53.2151,302.0839,15.1522,99.7728,0.00011524,0.00015736,0.0,0 STARLINK-3813,1 52482U 22049AH  22191.91667824  .00015736  00000-0  11524-3 0  9994,2 52482  53.2151 302.0839 0003081  15.1522  99.7728 15.73420919 10489,6727.265,91.52,351.20300000000015,347.05800000000005,0.0
52482.0,STARLINK-3813,PAYLOAD,2022-07-11 06:00:00,15.73204693,0.0002983,53.2173,300.4304,19.7188,183.685,-6.6588e-06,-1.558e-05,0.0,0 STARLINK-3813,1 52482U 22049AH  22192.25001157 -.00001558  00000-0 -66588-5 0  9994,2 52482  53.2173 300.4304 0002983  19.7188 183.6850 15.73204693 10534,6727.882,91.533,351.754,347.74,0.0
52482.0,STARLINK-3813,PAYLOAD,2022-07-11 14:00:01,15.73105584,0.0003193,53.2157,298.7854,12.4293,280.2715,0.00027251,0.00037648,0.0,0 STARLINK-3813,1 52482U 22049AH  22192.58334491  .00037648  00000-0  27251-3 0  9999,2 52482  53.2157 298.7854 0003193  12.4293 280.2715 15.73105584  1304,6728.1640000000025,91.539,352.17800000000005,347.881,0.0
52482.0,STARLINK-3813,PAYLOAD,2022-07-11 22:00:00,15.73266783,0.0003076,53.2162,297.1347,8.802,12.7205,-0.0052272,-0.0068012,0.0,0 STARLINK-3813,1 52482U 22049AH  22192.91667824 -.00680120  00000-0 -52272-2 0  9996,2 52482  53.2162 297.1347 0003076   8.8020  12.7205 15.73266783  1308,6727.705,91.529,351.639,347.5,0.0
52482.0,STARLINK-3813,PAYLOAD,2022-07-12 06:00:00,15.73062151,0.0003252,53.218,295.4821,6.7120000000000015,103.4434,-0.0077919,-0.00986094,0.0,0 STARLINK-3813,1 52482U 22049AH  22193.25001157 -.00986094  00000-0 -77919-2 0  9999,2 52482  53.2180 295.4821 0003252   6.7120 103.4434 15.73062151 10697,6728.288000000001,91.541,352.341,347.965,0.0
52482.0,STARLINK-3813,PAYLOAD,2022-07-12 14:00:01,15.72350205,0.000343,53.2175,293.836,8.2435,190.2447,-0.0086529,-0.01054603,0.0,0 STARLINK-3813,1 52482U 22049AH  22193.58334491 -.01054603  00000-0 -86529-2 0  9995,2 52482  53.2175 293.8360 0003430   8.2435 190.2447 15.72350205 10748,6730.319,91.583,354.49300000000005,349.876,0.0
52482.0,STARLINK-3813,PAYLOAD,2022-07-12 22:00:00,15.71592909,0.0002881,53.2174,292.1889,9.7194,276.2102,-0.0089728,-0.01058071,0.0,0 STARLINK-3813,1 52482U 22049AH  22193.91667824 -.01058071  00000-0 -89728-2 0  9998,2 52482  53.2174 292.1889 0002881   9.7194 276.2102 15.71592909  1305,6732.481,91.627,356.286,352.406,0.0
52482.0,STARLINK-3813,PAYLOAD,2022-07-13 06:00:00,15.70829287,0.00035,53.2176,290.5433,354.8795,17.5807,-0.0091932,-0.01050628,0.0,0 STARLINK-3813,1 52482U 22049AH  22194.25001157 -.01050628  00000-0 -91932-2 0  9997,2 52482  53.2176 290.5433 0003500 354.8795  17.5807 15.70829287 10853,6734.663000000001,91.671,358.885,354.171,0.0
52482.0,STARLINK-3813,PAYLOAD,2022-07-13 14:00:01,15.70082004,0.0004239,53.2175,288.903,336.7011,121.3696,-0.0096842,-0.01070588,0.0,0 STARLINK-3813,1 52482U 22049AH  22194.58334491 -.01070588  00000-0 -96842-2 0  9995,2 52482  53.2175 288.9030 0004239 336.7011 121.3696 15.70082004  1304,6736.799,91.715,361.52,355.809,0.0
52482.0,STARLINK-3813,PAYLOAD,2022-07-13 22:00:00,15.69316069,0.0001073,53.2174,287.2613,354.5001,188.2775,-0.0099044,-0.01059969,0.0,0 STARLINK-3813,1 52482U 22049AH  22194.91667824 -.01059969  00000-0 -99044-2 0  9998,2 52482  53.2174 287.2613 0001073 354.5001 188.2775 15.69316069  1301,6738.991,91.76,361.579,360.1330000000001,0.0
52482.0,STARLINK-3813,PAYLOAD,2022-07-14 08:00:01,15.683636600000002,0.0001351999999999,53.2176,285.2124,41.4297,335.9448,-0.010234,-0.0105357,0.0,0 STARLINK-3813,1 52482U 22049AH  22195.33334491 -.01053570  00000-0 -10234-1 0  9991,2 52482  53.2176 285.2124 0001352  41.4297 335.9448 15.68363660 11023,6741.719,91.815,364.496,362.673,0.0
52482.0,STARLINK-3813,PAYLOAD,2022-07-14 14:00:01,15.67794821,0.0001416999999999,53.2175,283.9864,39.9304,309.5158,-0.010491,-0.01054844,0.0,0 STARLINK-3813,1 52482U 22049AH  22195.58334491 -.01054844  00000-0 -10491-1 0  9998,2 52482  53.2175 283.9864 0001417  39.9304 309.5158 15.67794821  1302,6743.35,91.849,366.17,364.259,0.0
52482.0,STARLINK-3813,PAYLOAD,2022-07-14 22:00:00,15.67033841,0.0001247,53.2175,282.3501,50.3104,21.1027,-0.010792,-0.01051996,0.0,0 STARLINK-3813,1 52482U 22049AH  22195.91667824 -.01051996  00000-0 -10792-1 0  9993,2 52482  53.2175 282.3501 0001247  50.3104  21.1027 15.67033841  1309,6745.533,91.893,368.239,366.557,0.0
52482.0,STARLINK-3813,PAYLOAD,2022-07-15 06:00:00,15.66272528,0.0001433,53.2178,280.716,52.4453,100.0213,-0.011084,-0.01047965,0.0,0 STARLINK-3813,1 52482U 22049AH  22196.25001157 -.01047965  00000-0 -11084-1 0  9998,2 52482  53.2178 280.7160 0001433  52.4453 100.0213 15.66272528 11167,6747.718000000003,91.938,370.55,368.617,0.0
52482.0,STARLINK-3813,PAYLOAD,2022-07-15 14:00:01,15.65513929,0.0001624,53.2176,279.0867,42.3146,190.2907,-0.011451,-0.01049775,0.0,0 STARLINK-3813,1 52482U 22049AH  22196.58334491 -.01049775  00000-0 -11451-1 0  9993,2 52482  53.2176 279.0867 0001624  42.3146 190.2907 15.65513929  1307,6749.898,91.983,372.859,370.667,0.0
52482.0,STARLINK-3813,PAYLOAD,2022-07-15 22:00:00,15.6475645,0.0001336,53.2174,277.4557,44.2567,267.5765,-0.011852,-0.01053388,0.0,0 STARLINK-3813,1 52482U 22049AH  22196.91667824 -.01053388  00000-0 -11852-1 0  9999,2 52482  53.2174 277.4557 0001336  44.2567 267.5765 15.64756450 11264,6752.076,92.027,374.843,373.039,0.0
52482.0,STARLINK-3813,PAYLOAD,2022-07-16 14:00:01,15.6323489,0.0001764,53.2175,274.2034,34.438,73.1119,-0.01252,-0.01048051,0.0,0 STARLINK-3813,1 52482U 22049AH  22197.58334491 -.01048051  00000-0 -12520-1 0  9998,2 52482  53.2175 274.2034 0001764  34.4380  73.1119 15.63234890  1305,6756.456999999999,92.117,379.514,377.13,0.0
52482.0,STARLINK-3813,PAYLOAD,2022-07-16 22:00:00,15.62477266,0.0001419999999999,53.2175,272.5779,52.1888,131.8511,-0.0129449999999999,-0.01067599,0.0,0 STARLINK-3813,1 52482U 22049AH  22197.91667824 -.01067599  00000-0 -12945-1 0  9993,2 52482  53.2175 272.5779 0001420  52.1888 131.8511 15.62477266  1304,6758.641,92.161,381.466,379.546,0.0
52482.0,STARLINK-3813,PAYLOAD,2022-07-17 14:00:01,15.60957698,0.0001537,53.2177,269.3368,37.0829,297.197,-0.013716,-0.01066176,0.0,0 STARLINK-3813,1 52482U 22049AH  22198.58334491 -.01066176  00000-0 -13716-1 0  9995,2 52482  53.2177 269.3368 0001537  37.0829 297.1970 15.60957698  1305,6763.026,92.251,385.931,383.852,0.0
52482.0,STARLINK-3813,PAYLOAD,2022-07-17 22:00:00,15.60196879,0.0001537,53.2176,267.7166,34.398,13.635,-0.014093,-0.01063918,0.0,0 STARLINK-3813,1 52482U 22049AH  22198.91667824 -.01063918  00000-0 -14093-1 0  9991,2 52482  53.2176 267.7166 0001537  34.3980  13.6350 15.60196879 11580,6765.225,92.296,388.13,386.05,0.0
52482.0,STARLINK-3813,PAYLOAD,2022-07-18 14:00:01,15.58675176,0.0001871,53.2175,264.4867,35.3972,157.4005,-0.014853,-0.01058391,0.0,0 STARLINK-3813,1 52482U 22049AH  22199.58334491 -.01058391  00000-0 -14853-1 0  9999,2 52482  53.2175 264.4867 0001871  35.3972 157.4005 15.58675176  1306,6769.627,92.386,392.759,390.226,0.0
52482.0,STARLINK-3813,PAYLOAD,2022-07-18 22:00:00,15.579203,0.0001536,53.2175,262.872,41.0334,222.7773,-0.015413,-0.01066349,0.0,0 STARLINK-3813,1 52482U 22049AH  22199.91667824 -.01066349  00000-0 -15413-1 0  9990,2 52482  53.2175 262.8720 0001536  41.0334 222.7773 15.57920300 11737,6771.814,92.431,394.719,392.639,0.0
52482.0,STARLINK-3813,PAYLOAD,2022-07-19 14:00:01,15.56397661,0.0001665999999999,53.2174,259.6531,32.1756,10.9243,-0.016215,-0.01059988,0.0,0 STARLINK-3813,1 52482U 22049AH  22200.58334491 -.01059988  00000-0 -16215-1 0  9999,2 52482  53.2174 259.6531 0001666  32.1756  10.9243 15.56397661  1301,6776.23,92.521,399.224,396.966,0.0
52482.0,STARLINK-3813,PAYLOAD,2022-07-19 22:00:00,15.55638089,0.0001683,53.2175,258.0438,35.3815,75.9951,-0.016673,-0.01059517,0.0,0 STARLINK-3813,1 52482U 22049AH  22200.91667824 -.01059517  00000-0 -16673-1 0  9991,2 52482  53.2175 258.0438 0001683  35.3815  75.9951 15.55638089  1309,6778.435,92.567,401.441,399.16,0.0
